start=new Date('2022-03-04T00:00:00.000Z').valueOf();
sats=[{"EPOCH":"2022-03-03T22:14:01.094784","NORAD_CAT_ID":"47738","CENTER_NAME":"EARTH","PERIOD":"95.592","TIME_SYSTEM":"UTC","ELEMENT_SET_NO":"999","RA_OF_ASC_NODE":"306.1838","OBJECT_TYPE":"PAYLOAD","RCS_SIZE":"LARGE","EPHEMERIS_TYPE":"0","CLASSIFICATION_TYPE":"U","INCLINATION":"53.0544","MEAN_MOTION_DDOT":"0.0000000000000","REV_AT_EPOCH":"5684","MEAN_ELEMENT_THEORY":"SGP4","COUNTRY_CODE":"US","TLE_LINE1":"1 47738U 21017S   22062.92640156  .00003050  00000-0  22354-3 0  9992","DECAY_DATE":null,"LAUNCH_DATE":"2021-03-04","REF_FRAME":"TEME","MEAN_ANOMALY":"284.9692","APOAPSIS":"547.907","BSTAR":"0.00022354000000","FILE":"3343255","ECCENTRICITY":"0.00010240","MEAN_MOTION_DOT":"0.00003050","OBJECT_NAME":"STARLINK-2149","TLE_LINE2":"2 47738  53.0544 306.1838 0001024  75.1410 284.9692 15.06405146 56841","GP_ID":"197768331","SITE":"AFETR","PERIAPSIS":"546.489","MEAN_MOTION":"15.06405146","OBJECT_ID":"2021-017S","SEMIMAJOR_AXIS":"6925.333","ARG_OF_PERICENTER":"75.1410"},{"OBJECT_TYPE":"PAYLOAD","RCS_SIZE":"LARGE","EPHEMERIS_TYPE":"0","CLASSIFICATION_TYPE":"U","MEAN_MOTION_DDOT":"0.0000000000000","INCLINATION":"53.0554","REV_AT_EPOCH":"5649","MEAN_ELEMENT_THEORY":"SGP4","MEAN_ANOMALY":"296.9041","COUNTRY_CODE":"US","TLE_LINE1":"1 47739U 21017T   22062.90750827  .00004899  00000-0  34749-3 0  9991","DECAY_DATE":null,"LAUNCH_DATE":"2021-03-04","REF_FRAME":"TEME","APOAPSIS":"548.358","NORAD_CAT_ID":"47739","EPOCH":"2022-03-03T21:46:48.714528","CENTER_NAME":"EARTH","PERIOD":"95.591","TIME_SYSTEM":"UTC","ELEMENT_SET_NO":"999","RA_OF_ASC_NODE":"331.2649","OBJECT_ID":"2021-017T","SEMIMAJOR_AXIS":"6925.318","ARG_OF_PERICENTER":"63.2122","FILE":"3343255","BSTAR":"0.00034749000000","MEAN_MOTION_DOT":"0.00004899","ECCENTRICITY":"0.00016970","OBJECT_NAME":"STARLINK-2150","TLE_LINE2":"2 47739  53.0554 331.2649 0001697  63.2122 296.9041 15.06410098 56490","GP_ID":"197768081","SITE":"AFETR","PERIAPSIS":"546.007","MEAN_MOTION":"15.06410098"},{"CENTER_NAME":"EARTH","PERIOD":"95.593","EPOCH":"2022-03-03T21:19:37.407360","NORAD_CAT_ID":"47740","ELEMENT_SET_NO":"999","RA_OF_ASC_NODE":"316.3509","TIME_SYSTEM":"UTC","EPHEMERIS_TYPE":"0","CLASSIFICATION_TYPE":"U","OBJECT_TYPE":"PAYLOAD","RCS_SIZE":"LARGE","DECAY_DATE":null,"TLE_LINE1":"1 47740U 21017U   22062.88862740  .00001866  00000-0  14422-3 0  9995","COUNTRY_CODE":"US","LAUNCH_DATE":"2021-03-04","REF_FRAME":"TEME","MEAN_ANOMALY":"293.9204","APOAPSIS":"548.566","INCLINATION":"53.0543","MEAN_MOTION_DDOT":"0.0000000000000","MEAN_ELEMENT_THEORY":"SGP4","REV_AT_EPOCH":"5669","MEAN_MOTION_DOT":"0.00001866","ECCENTRICITY":"0.00018880","OBJECT_NAME":"STARLINK-2152","BSTAR":"0.00014422000000","FILE":"3343255","MEAN_MOTION":"15.06385467","TLE_LINE2":"2 47740  53.0543 316.3509 0001888  66.1983 293.9204 15.06385467 56699","GP_ID":"197767330","PERIAPSIS":"545.951","SITE":"AFETR","OBJECT_ID":"2021-017U","ARG_OF_PERICENTER":"66.1983","SEMIMAJOR_AXIS":"6925.393"},{"OBJECT_ID":"2021-017V","ARG_OF_PERICENTER":"63.1198","SEMIMAJOR_AXIS":"6925.365","GP_ID":"197767580","TLE_LINE2":"2 47741  53.0543 316.2839 0001609  63.1198 296.9956 15.06394569 56657","SITE":"AFETR","PERIAPSIS":"546.116","MEAN_MOTION":"15.06394569","FILE":"3343255","BSTAR":"-0.00004348600000","MEAN_MOTION_DOT":"-0.00000929","ECCENTRICITY":"0.00016090","OBJECT_NAME":"STARLINK-2154","MEAN_MOTION_DDOT":"0.0000000000000","INCLINATION":"53.0543","REV_AT_EPOCH":"5665","MEAN_ELEMENT_THEORY":"SGP4","MEAN_ANOMALY":"296.9956","TLE_LINE1":"1 47741U 21017V   22062.90336632 -.00000929  00000-0 -43486-4 0  9999","REF_FRAME":"TEME","DECAY_DATE":null,"LAUNCH_DATE":"2021-03-04","COUNTRY_CODE":"US","APOAPSIS":"548.344","RCS_SIZE":"LARGE","OBJECT_TYPE":"PAYLOAD","EPHEMERIS_TYPE":"0","CLASSIFICATION_TYPE":"U","TIME_SYSTEM":"UTC","ELEMENT_SET_NO":"999","RA_OF_ASC_NODE":"316.2839","NORAD_CAT_ID":"47741","EPOCH":"2022-03-03T21:40:50.850048","CENTER_NAME":"EARTH","PERIOD":"95.592"},{"MEAN_MOTION":"15.06389107","GP_ID":"197767831","TLE_LINE2":"2 47742  53.0535 306.2385 0001601  74.7111 285.4055 15.06389107 56845","SITE":"AFETR","PERIAPSIS":"546.138","MEAN_MOTION_DOT":"-0.00000375","ECCENTRICITY":"0.00016010","OBJECT_NAME":"STARLINK-2156","BSTAR":"-0.00000628710000","FILE":"3343255","OBJECT_ID":"2021-017W","SEMIMAJOR_AXIS":"6925.382","ARG_OF_PERICENTER":"74.7111","ELEMENT_SET_NO":"999","RA_OF_ASC_NODE":"306.2385","TIME_SYSTEM":"UTC","CENTER_NAME":"EARTH","PERIOD":"95.593","EPOCH":"2022-03-03T21:58:06.614112","NORAD_CAT_ID":"47742","TLE_LINE1":"1 47742U 21017W   22062.91535433 -.00000375  00000-0 -62871-5 0  9996","LAUNCH_DATE":"2021-03-04","DECAY_DATE":null,"COUNTRY_CODE":"US","REF_FRAME":"TEME","MEAN_ANOMALY":"285.4055","APOAPSIS":"548.356","INCLINATION":"53.0535","MEAN_MOTION_DDOT":"0.0000000000000","MEAN_ELEMENT_THEORY":"SGP4","REV_AT_EPOCH":"5684","EPHEMERIS_TYPE":"0","CLASSIFICATION_TYPE":"U","OBJECT_TYPE":"PAYLOAD","RCS_SIZE":"LARGE"},{"MEAN_MOTION_DOT":"0.00001397","ECCENTRICITY":"0.00017120","OBJECT_NAME":"STARLINK-2157","BSTAR":"0.00011266000000","FILE":"3343255","MEAN_MOTION":"15.06403894","TLE_LINE2":"2 47743  53.0556 306.1104 0001712  66.7051 293.4118 15.06403894 56821","GP_ID":"197768582","PERIAPSIS":"546.016","SITE":"AFETR","OBJECT_ID":"2021-017X","SEMIMAJOR_AXIS":"6925.337","ARG_OF_PERICENTER":"66.7051","CENTER_NAME":"EARTH","PERIOD":"95.592","EPOCH":"2022-03-03T22:35:14.839008","NORAD_CAT_ID":"47743","ELEMENT_SET_NO":"999","RA_OF_ASC_NODE":"306.1104","TIME_SYSTEM":"UTC","EPHEMERIS_TYPE":"0","CLASSIFICATION_TYPE":"U","OBJECT_TYPE":"PAYLOAD","RCS_SIZE":"LARGE","DECAY_DATE":null,"TLE_LINE1":"1 47743U 21017X   22062.94114397  .00001397  00000-0  11266-3 0  9995","COUNTRY_CODE":"US","LAUNCH_DATE":"2021-03-04","REF_FRAME":"TEME","MEAN_ANOMALY":"293.4118","APOAPSIS":"548.387","INCLINATION":"53.0556","MEAN_MOTION_DDOT":"0.0000000000000","REV_AT_EPOCH":"5682","MEAN_ELEMENT_THEORY":"SGP4"},{"EPHEMERIS_TYPE":"0","CLASSIFICATION_TYPE":"U","RCS_SIZE":"LARGE","OBJECT_TYPE":"PAYLOAD","MEAN_ANOMALY":"290.9192","TLE_LINE1":"1 47744U 21017Y   22062.91903077  .00004724  00000-0  33576-3 0  9999","COUNTRY_CODE":"US","DECAY_DATE":null,"LAUNCH_DATE":"2021-03-04","REF_FRAME":"TEME","APOAPSIS":"548.378","MEAN_MOTION_DDOT":"0.0000000000000","INCLINATION":"53.0549","MEAN_ELEMENT_THEORY":"SGP4","REV_AT_EPOCH":"5684","CENTER_NAME":"EARTH","PERIOD":"95.592","NORAD_CAT_ID":"47744","EPOCH":"2022-03-03T22:03:24.258528","ELEMENT_SET_NO":"999","RA_OF_ASC_NODE":"306.2206","TIME_SYSTEM":"UTC","OBJECT_ID":"2021-017Y","SEMIMAJOR_AXIS":"6925.332","ARG_OF_PERICENTER":"69.1980","ECCENTRICITY":"0.00017050","MEAN_MOTION_DOT":"0.00004724","OBJECT_NAME":"STARLINK-2158","FILE":"3343255","BSTAR":"0.00033576000000","MEAN_MOTION":"15.06405282","TLE_LINE2":"2 47744  53.0549 306.2206 0001705  69.1980 290.9192 15.06405282 56847","GP_ID":"197766830","SITE":"AFETR","PERIAPSIS":"546.017"},{"RCS_SIZE":"LARGE","OBJECT_TYPE":"PAYLOAD","EPHEMERIS_TYPE":"0","CLASSIFICATION_TYPE":"U","INCLINATION":"53.0534","MEAN_MOTION_DDOT":"0.0000000000000","REV_AT_EPOCH":"5664","MEAN_ELEMENT_THEORY":"SGP4","DECAY_DATE":null,"TLE_LINE1":"1 47745U 21017Z   22062.88125630  .00001216  00000-0  10054-3 0  9996","LAUNCH_DATE":"2021-03-04","REF_FRAME":"TEME","COUNTRY_CODE":"US","MEAN_ANOMALY":"295.2169","APOAPSIS":"548.401","EPOCH":"2022-03-03T21:09:00.544320","NORAD_CAT_ID":"47745","CENTER_NAME":"EARTH","PERIOD":"95.592","TIME_SYSTEM":"UTC","ELEMENT_SET_NO":"999","RA_OF_ASC_NODE":"316.3909","OBJECT_ID":"2021-017Z","ARG_OF_PERICENTER":"64.8997","SEMIMAJOR_AXIS":"6925.359","BSTAR":"0.00010054000000","FILE":"3343255","ECCENTRICITY":"0.00017000","MEAN_MOTION_DOT":"0.00001216","OBJECT_NAME":"STARLINK-2159","GP_ID":"197767080","TLE_LINE2":"2 47745  53.0534 316.3909 0001700  64.8997 295.2169 15.06396693 56644","SITE":"AFETR","PERIAPSIS":"546.046","MEAN_MOTION":"15.06396693"},{"OBJECT_TYPE":"PAYLOAD","RCS_SIZE":"LARGE","EPHEMERIS_TYPE":"0","CLASSIFICATION_TYPE":"U","INCLINATION":"53.0553","MEAN_MOTION_DDOT":"0.0000000000000","REV_AT_EPOCH":"5663","MEAN_ELEMENT_THEORY":"SGP4","DECAY_DATE":null,"TLE_LINE1":"1 47746U 21017AA  22062.87387658  .00004096  00000-0  29367-3 0  9992","LAUNCH_DATE":"2021-03-04","REF_FRAME":"TEME","COUNTRY_CODE":"US","MEAN_ANOMALY":"296.7642","APOAPSIS":"548.530","EPOCH":"2022-03-03T20:58:22.936512","NORAD_CAT_ID":"47746","CENTER_NAME":"EARTH","PERIOD":"95.592","TIME_SYSTEM":"UTC","ELEMENT_SET_NO":"999","RA_OF_ASC_NODE":"316.4053","OBJECT_ID":"2021-017AA","ARG_OF_PERICENTER":"63.3545","SEMIMAJOR_AXIS":"6925.330","BSTAR":"0.00029367000000","FILE":"3343255","MEAN_MOTION_DOT":"0.00004096","ECCENTRICITY":"0.00019280","OBJECT_NAME":"STARLINK-2160","TLE_LINE2":"2 47746  53.0553 316.4053 0001928  63.3545 296.7642 15.06406101 56639","GP_ID":"197768332","SITE":"AFETR","PERIAPSIS":"545.860","MEAN_MOTION":"15.06406101"},{"TIME_SYSTEM":"UTC","RA_OF_ASC_NODE":"306.1354","ELEMENT_SET_NO":"999","EPOCH":"2022-03-03T22:29:55.898592","NORAD_CAT_ID":"47747","PERIOD":"95.592","CENTER_NAME":"EARTH","MEAN_ELEMENT_THEORY":"SGP4","REV_AT_EPOCH":"5682","INCLINATION":"53.0536","MEAN_MOTION_DDOT":"0.0000000000000","APOAPSIS":"548.329","TLE_LINE1":"1 47747U 21017AB  22062.93745253  .00002746  00000-0  20310-3 0  9998","DECAY_DATE":null,"REF_FRAME":"TEME","LAUNCH_DATE":"2021-03-04","COUNTRY_CODE":"US","MEAN_ANOMALY":"293.1273","RCS_SIZE":"LARGE","OBJECT_TYPE":"PAYLOAD","CLASSIFICATION_TYPE":"U","EPHEMERIS_TYPE":"0","PERIAPSIS":"546.048","SITE":"AFETR","TLE_LINE2":"2 47747  53.0536 306.1354 0001647  66.9889 293.1273 15.06408298 56820","GP_ID":"197768082","MEAN_MOTION":"15.06408298","BSTAR":"0.00020310000000","FILE":"3343255","OBJECT_NAME":"STARLINK-2161","MEAN_MOTION_DOT":"0.00002746","ECCENTRICITY":"0.00016470","ARG_OF_PERICENTER":"66.9889","SEMIMAJOR_AXIS":"6925.323","OBJECT_ID":"2021-017AB"}];
